METEOSAT-11 (MSG-4)     
1 40732U 15034A   26065.58329576  .00000058  00000+0  00000+0 0  9994
2 40732   2.9431  71.6672 0001810 270.9037  41.0689  1.00266785  6182
ELEKTRO-L 2             
1 41105U 15074A   26065.36472917 -.00000120  00000+0  00000+0 0  9998
2 41105   6.4361  71.7892 0003296 241.0325 328.0533  1.00271008 37478
INSAT-3DR               
1 41752U 16054A   26065.54364230 -.00000081  00000+0  00000+0 0  9999
2 41752   0.0528  95.2916 0013059 186.8450 151.8186  1.00272687 34783
HIMAWARI-9              
1 41836U 16064A   26065.56642027 -.00000279  00000+0  00000+0 0  9997
2 41836   0.0133 169.0758 0001256 209.2337 130.6622  1.00271781 34180
GOES 16                 
1 41866U 16071A   26065.56084899 -.00000095  00000+0  00000+0 0  9991
2 41866   0.1362  89.1476 0002391 221.4894 310.8421  1.00271524 34074
FENGYUN 4A              
1 41882U 16077A   26065.60608919 -.00000360  00000+0  00000+0 0  9990
2 41882   2.0617  81.3917 0007272 135.1475 289.5967  1.00278306 33902
CYGFM05                 
1 41884U 16078A   26065.54866334  .00030417  00000+0  48844-3 0  9990
2 41884  34.9570 217.9397 0007158 258.9309 101.0609 15.51989713512778
CYGFM04                 
1 41885U 16078B   26065.60478341  .00034462  00000+0  48832-3 0  9996
2 41885  34.9330 189.7535 0006064 293.1031  66.9053 15.55405108512981
CYGFM02                 
1 41886U 16078C   26065.63864166  .00039545  00000+0  51413-3 0  9990
2 41886  34.9415 186.4960 0007044 295.2069  64.7925 15.57683559513137
CYGFM01                 
1 41887U 16078D   26065.57673090  .00031625  00000+0  49972-3 0  9996
2 41887  34.9400 219.5578 0006805 250.7168 109.2819 15.52431881512720
CYGFM08                 
1 41888U 16078E   26065.55980750  .00033267  00000+0  49768-3 0  9996
2 41888  34.9434 201.5685 0008245 276.0029  83.9755 15.53917317512962
CYGFM07                 
1 41890U 16078G   26065.59198573  .00034144  00000+0  49810-3 0  9990
2 41890  34.9455 189.8234 0006649 296.0016  64.0023 15.54613848512994
CYGFM03                 
1 41891U 16078H   26065.62728487  .00034187  00000+0  49844-3 0  9992
2 41891  34.9409 191.5672 0005902 282.2876  77.7186 15.54634629512971
FENGYUN 3D              
1 43010U 17072A   26065.60568311  .00000199  00000+0  11600-3 0  9993
2 43010  99.0028  38.2314 0001714  19.3601 340.7639 14.19714263430436
NOAA 20 (JPSS-1)        
1 43013U 17073A   26065.58607575  .00000127  00000+0  81391-4 0  9996
2 43013  98.7689   6.0041 0001077 141.2468 218.8786 14.19535120429918
GOES 17                 
1 43226U 18022A   26065.56388235 -.00000186  00000+0  00000+0 0  9993
2 43226   0.6735  87.5071 0002128 225.3094 324.9405  1.00270160 29393
FENGYUN 2H              
1 43491U 18050A   26065.59724916 -.00000130  00000+0  00000+0 0  9990
2 43491   2.7664  80.3342 0001680 175.3780 202.6860  1.00272748 28414
